start=new Date('2022-04-02T00:00:00.000Z').valueOf();
sats=[{"RCS_SIZE":"LARGE","ELEMENT_SET_NO":"999","DECAY_DATE":null,"REF_FRAME":"TEME","APOAPSIS":"548.213","MEAN_MOTION_DDOT":"0.0000000000000","SITE":"AFETR","OBJECT_NAME":"STARLINK-1790","GP_ID":"200264070","MEAN_MOTION_DOT":"0.00008322","PERIAPSIS":"546.062","RA_OF_ASC_NODE":"216.5066","EPOCH":"2022-04-01T19:30:51.245568","REV_AT_EPOCH":"8040","ECCENTRICITY":"0.00015530","EPHEMERIS_TYPE":"0","ARG_OF_PERICENTER":"60.8268","TLE_LINE2":"2 46691  53.0530 216.5066 0001553  60.8268 299.2876 15.06424752 80405","LAUNCH_DATE":"2020-10-18","TLE_LINE1":"1 46691U 20073X   22091.81309312  .00008322  00000-0  57655-3 0  9995","MEAN_MOTION":"15.06424752","CENTER_NAME":"EARTH","TIME_SYSTEM":"UTC","CLASSIFICATION_TYPE":"U","MEAN_ANOMALY":"299.2876","SEMIMAJOR_AXIS":"6925.273","BSTAR":"0.00057655000000","COUNTRY_CODE":"US","MEAN_ELEMENT_THEORY":"SGP4","INCLINATION":"53.0530","PERIOD":"95.591","OBJECT_TYPE":"PAYLOAD","FILE":"3383778","NORAD_CAT_ID":"46691","OBJECT_ID":"2020-073X"},{"ARG_OF_PERICENTER":"70.5158","ECCENTRICITY":"0.00014840","EPHEMERIS_TYPE":"0","REV_AT_EPOCH":"8017","EPOCH":"2022-04-01T15:59:12.946848","RA_OF_ASC_NODE":"232.1476","PERIAPSIS":"546.141","MEAN_MOTION_DOT":"0.00006987","OBJECT_NAME":"STARLINK-1791","GP_ID":"200263812","SITE":"AFETR","MEAN_MOTION_DDOT":"0.0000000000000","APOAPSIS":"548.197","REF_FRAME":"TEME","DECAY_DATE":null,"ELEMENT_SET_NO":"999","RCS_SIZE":"LARGE","NORAD_CAT_ID":"46692","OBJECT_ID":"2020-073Y","FILE":"3383778","OBJECT_TYPE":"PAYLOAD","PERIOD":"95.591","INCLINATION":"53.0539","MEAN_ELEMENT_THEORY":"SGP4","BSTAR":"0.00048728000000","COUNTRY_CODE":"US","SEMIMAJOR_AXIS":"6925.304","MEAN_ANOMALY":"289.5991","CLASSIFICATION_TYPE":"U","TIME_SYSTEM":"UTC","MEAN_MOTION":"15.06414564","CENTER_NAME":"EARTH","TLE_LINE1":"1 46692U 20073Y   22091.66612207  .00006987  00000-0  48728-3 0  9995","LAUNCH_DATE":"2020-10-18","TLE_LINE2":"2 46692  53.0539 232.1476 0001484  70.5158 289.5991 15.06414564 80177"},{"INCLINATION":"53.0557","MEAN_ELEMENT_THEORY":"SGP4","COUNTRY_CODE":"US","BSTAR":"0.00020242000000","NORAD_CAT_ID":"46693","OBJECT_ID":"2020-073Z","FILE":"3383778","OBJECT_TYPE":"PAYLOAD","PERIOD":"95.591","TIME_SYSTEM":"UTC","MEAN_MOTION":"15.06415220","CENTER_NAME":"EARTH","TLE_LINE1":"1 46693U 20073Z   22091.75043162  .00002736  00000-0  20242-3 0  9993","LAUNCH_DATE":"2020-10-18","TLE_LINE2":"2 46693  53.0557 216.7806 0001647  61.2793 298.8361 15.06415220 80394","SEMIMAJOR_AXIS":"6925.302","MEAN_ANOMALY":"298.8361","CLASSIFICATION_TYPE":"U","OBJECT_NAME":"STARLINK-1792","GP_ID":"200262568","SITE":"AFETR","MEAN_MOTION_DDOT":"0.0000000000000","ARG_OF_PERICENTER":"61.2793","EPHEMERIS_TYPE":"0","ECCENTRICITY":"0.00016470","REV_AT_EPOCH":"8039","EPOCH":"2022-04-01T18:00:37.291968","RA_OF_ASC_NODE":"216.7806","PERIAPSIS":"546.026","MEAN_MOTION_DOT":"0.00002736","DECAY_DATE":null,"ELEMENT_SET_NO":"999","RCS_SIZE":"LARGE","APOAPSIS":"548.308","REF_FRAME":"TEME"},{"SEMIMAJOR_AXIS":"6925.331","CLASSIFICATION_TYPE":"U","MEAN_ANOMALY":"236.7843","TLE_LINE1":"1 46694U 20073AA  22091.57535738  .00003064  00000-0  22450-3 0  9997","LAUNCH_DATE":"2020-10-18","TIME_SYSTEM":"UTC","MEAN_MOTION":"15.06405700","CENTER_NAME":"EARTH","TLE_LINE2":"2 46694  53.0538 197.5740 0001664 123.3305 236.7843 15.06405700 80652","OBJECT_ID":"2020-073AA","NORAD_CAT_ID":"46694","PERIOD":"95.592","FILE":"3383353","OBJECT_TYPE":"PAYLOAD","INCLINATION":"53.0538","BSTAR":"0.00022450000000","COUNTRY_CODE":"US","MEAN_ELEMENT_THEORY":"SGP4","APOAPSIS":"548.348","REF_FRAME":"TEME","ELEMENT_SET_NO":"999","RCS_SIZE":"LARGE","DECAY_DATE":null,"REV_AT_EPOCH":"8065","EPOCH":"2022-04-01T13:48:30.877632","RA_OF_ASC_NODE":"197.5740","ARG_OF_PERICENTER":"123.3305","EPHEMERIS_TYPE":"0","ECCENTRICITY":"0.00016640","PERIAPSIS":"546.044","MEAN_MOTION_DOT":"0.00003064","GP_ID":"200229537","OBJECT_NAME":"STARLINK-1793","MEAN_MOTION_DDOT":"0.0000000000000","SITE":"AFETR"},{"FILE":"3383353","OBJECT_TYPE":"PAYLOAD","PERIOD":"95.592","NORAD_CAT_ID":"46696","OBJECT_ID":"2020-073AC","MEAN_ELEMENT_THEORY":"SGP4","COUNTRY_CODE":"US","BSTAR":"0.00026036000000","INCLINATION":"53.0554","MEAN_ANOMALY":"309.3166","CLASSIFICATION_TYPE":"U","SEMIMAJOR_AXIS":"6925.320","TLE_LINE2":"2 46696  53.0554 197.7778 0001814  50.7984 309.3166 15.06409448 80645","TIME_SYSTEM":"UTC","MEAN_MOTION":"15.06409448","CENTER_NAME":"EARTH","TLE_LINE1":"1 46696U 20073AC  22091.52743997  .00003600  00000-0  26036-3 0  9992","LAUNCH_DATE":"2020-10-18","MEAN_MOTION_DOT":"0.00003600","PERIAPSIS":"545.928","ARG_OF_PERICENTER":"50.7984","ECCENTRICITY":"0.00018140","EPHEMERIS_TYPE":"0","REV_AT_EPOCH":"8064","RA_OF_ASC_NODE":"197.7778","EPOCH":"2022-04-01T12:39:30.813408","SITE":"AFETR","MEAN_MOTION_DDOT":"0.0000000000000","GP_ID":"200229773","OBJECT_NAME":"STARLINK-1795","REF_FRAME":"TEME","APOAPSIS":"548.441","DECAY_DATE":null,"ELEMENT_SET_NO":"999","RCS_SIZE":"LARGE"},{"MEAN_ANOMALY":"287.1121","CLASSIFICATION_TYPE":"U","SEMIMAJOR_AXIS":"6925.306","TLE_LINE2":"2 46698  53.0533 217.5178 0001511  73.0034 287.1121 15.06413867 80371","TIME_SYSTEM":"UTC","CENTER_NAME":"EARTH","MEAN_MOTION":"15.06413867","TLE_LINE1":"1 46698U 20073AE  22091.58457109  .00002333  00000-0  17541-3 0  9990","LAUNCH_DATE":"2020-10-18","FILE":"3383353","OBJECT_TYPE":"PAYLOAD","PERIOD":"95.591","NORAD_CAT_ID":"46698","OBJECT_ID":"2020-073AE","MEAN_ELEMENT_THEORY":"SGP4","COUNTRY_CODE":"US","BSTAR":"0.00017541000000","INCLINATION":"53.0533","REF_FRAME":"TEME","APOAPSIS":"548.217","DECAY_DATE":null,"ELEMENT_SET_NO":"999","RCS_SIZE":"LARGE","MEAN_MOTION_DOT":"0.00002333","PERIAPSIS":"546.125","ARG_OF_PERICENTER":"73.0034","ECCENTRICITY":"0.00015110","EPHEMERIS_TYPE":"0","REV_AT_EPOCH":"8037","EPOCH":"2022-04-01T14:01:46.942176","RA_OF_ASC_NODE":"217.5178","SITE":"AFETR","MEAN_MOTION_DDOT":"0.0000000000000","GP_ID":"200228536","OBJECT_NAME":"STARLINK-1797"},{"DECAY_DATE":null,"ELEMENT_SET_NO":"999","RCS_SIZE":"LARGE","APOAPSIS":"548.222","REF_FRAME":"TEME","GP_ID":"200229286","OBJECT_NAME":"STARLINK-1799","SITE":"AFETR","MEAN_MOTION_DDOT":"0.0000000000000","ARG_OF_PERICENTER":"59.8323","ECCENTRICITY":"0.00015190","EPHEMERIS_TYPE":"0","REV_AT_EPOCH":"8037","RA_OF_ASC_NODE":"217.5174","EPOCH":"2022-04-01T14:07:04.912320","PERIAPSIS":"546.119","MEAN_MOTION_DOT":"0.00003421","TIME_SYSTEM":"UTC","MEAN_MOTION":"15.06414062","CENTER_NAME":"EARTH","TLE_LINE1":"1 46699U 20073AF  22091.58825130  .00003421  00000-0  24834-3 0  9996","LAUNCH_DATE":"2020-10-18","TLE_LINE2":"2 46699  53.0537 217.5174 0001519  59.8323 300.2816 15.06414062 80379","SEMIMAJOR_AXIS":"6925.305","MEAN_ANOMALY":"300.2816","CLASSIFICATION_TYPE":"U","INCLINATION":"53.0537","MEAN_ELEMENT_THEORY":"SGP4","BSTAR":"0.00024834000000","COUNTRY_CODE":"US","NORAD_CAT_ID":"46699","OBJECT_ID":"2020-073AF","FILE":"3383353","OBJECT_TYPE":"PAYLOAD","PERIOD":"95.591"},{"DECAY_DATE":null,"ELEMENT_SET_NO":"999","RCS_SIZE":"LARGE","REF_FRAME":"TEME","APOAPSIS":"548.239","SITE":"AFETR","MEAN_MOTION_DDOT":"0.0000000000000","OBJECT_NAME":"STARLINK-1800","GP_ID":"200262818","MEAN_MOTION_DOT":"0.00008550","PERIAPSIS":"545.989","ARG_OF_PERICENTER":"66.0239","EPHEMERIS_TYPE":"0","ECCENTRICITY":"0.00016240","REV_AT_EPOCH":"8017","RA_OF_ASC_NODE":"232.1832","EPOCH":"2022-04-01T15:48:36.254016","TLE_LINE2":"2 46700  53.0552 232.1832 0001624  66.0239 294.0920 15.06432506 80173","TIME_SYSTEM":"UTC","MEAN_MOTION":"15.06432506","CENTER_NAME":"EARTH","TLE_LINE1":"1 46700U 20073AG  22091.65875294  .00008550  00000-0  59169-3 0  9990","LAUNCH_DATE":"2020-10-18","MEAN_ANOMALY":"294.0920","CLASSIFICATION_TYPE":"U","SEMIMAJOR_AXIS":"6925.249","MEAN_ELEMENT_THEORY":"SGP4","BSTAR":"0.00059169000000","COUNTRY_CODE":"US","INCLINATION":"53.0552","FILE":"3383778","OBJECT_TYPE":"PAYLOAD","PERIOD":"95.590","NORAD_CAT_ID":"46700","OBJECT_ID":"2020-073AG"},{"DECAY_DATE":null,"ELEMENT_SET_NO":"999","RCS_SIZE":"LARGE","REF_FRAME":"TEME","APOAPSIS":"548.257","SITE":"AFETR","MEAN_MOTION_DDOT":"0.0000000000000","OBJECT_NAME":"STARLINK-1801","GP_ID":"200264071","PERIAPSIS":"546.052","MEAN_MOTION_DOT":"0.00004967","ARG_OF_PERICENTER":"59.3812","EPHEMERIS_TYPE":"0","ECCENTRICITY":"0.00015920","REV_AT_EPOCH":"8038","EPOCH":"2022-04-01T15:00:09.870336","RA_OF_ASC_NODE":"217.3446","TLE_LINE2":"2 46701  53.0550 217.3446 0001592  59.3812 300.7334 15.06419277 80381","TIME_SYSTEM":"UTC","MEAN_MOTION":"15.06419277","CENTER_NAME":"EARTH","TLE_LINE1":"1 46701U 20073AH  22091.62511424  .00004967  00000-0  35190-3 0  9996","LAUNCH_DATE":"2020-10-18","MEAN_ANOMALY":"300.7334","CLASSIFICATION_TYPE":"U","SEMIMAJOR_AXIS":"6925.289","MEAN_ELEMENT_THEORY":"SGP4","COUNTRY_CODE":"US","BSTAR":"0.00035190000000","INCLINATION":"53.0550","FILE":"3383778","OBJECT_TYPE":"PAYLOAD","PERIOD":"95.591","NORAD_CAT_ID":"46701","OBJECT_ID":"2020-073AH"},{"MEAN_MOTION_DDOT":"0.0000000000000","SITE":"AFETR","GP_ID":"200263813","OBJECT_NAME":"STARLINK-1802","MEAN_MOTION_DOT":"0.00016832","PERIAPSIS":"545.993","REV_AT_EPOCH":"8066","RA_OF_ASC_NODE":"197.2911","EPOCH":"2022-04-01T15:18:44.839872","ARG_OF_PERICENTER":"53.6794","ECCENTRICITY":"0.00016250","EPHEMERIS_TYPE":"0","ELEMENT_SET_NO":"999","RCS_SIZE":"LARGE","DECAY_DATE":null,"REF_FRAME":"TEME","APOAPSIS":"548.244","BSTAR":"0.00114520000000","COUNTRY_CODE":"US","MEAN_ELEMENT_THEORY":"SGP4","INCLINATION":"53.0541","PERIOD":"95.590","FILE":"3383778","OBJECT_TYPE":"PAYLOAD","NORAD_CAT_ID":"46702","OBJECT_ID":"2020-073AJ","TLE_LINE2":"2 46702  53.0541 197.2911 0001625  53.6794 306.4344 15.06430922 80663","TLE_LINE1":"1 46702U 20073AJ  22091.63801898  .00016832  00000-0  11452-2 0  9993","LAUNCH_DATE":"2020-10-18","TIME_SYSTEM":"UTC","CENTER_NAME":"EARTH","MEAN_MOTION":"15.06430922","CLASSIFICATION_TYPE":"U","MEAN_ANOMALY":"306.4344","SEMIMAJOR_AXIS":"6925.254"}];
